CCSDS_OMM_VERS = 2.0
CREATION_DATE  = 
ORIGINATOR     = 

OBJECT_NAME    = SL-4 R/B
OBJECT_ID      = 2014-021B
CENTER_NAME    = EARTH
REF_FRAME      = TEME
TIME_SYSTEM    = UTC
MEAN_ELEMENT_THEORY = SGP/SGP4

EPOCH          = 2026-01-27T18:30:46.132128
MEAN_MOTION    = 15.37895030
ECCENTRICITY   = .009905
INCLINATION    = 51.6053
RA_OF_ASC_NODE = 176.6907
ARG_OF_PERICENTER = 313.7585
MEAN_ANOMALY   = 45.5231

EPHEMERIS_TYPE = 0
CLASSIFICATION_TYPE = U
NORAD_CAT_ID   = 39679
ELEMENT_SET_NO = 999
REV_AT_EPOCH   = 64997
BSTAR          = .35494E-3
MEAN_MOTION_DOT = .1548E-3
MEAN_MOTION_DDOT = 0

CCSDS_OMM_VERS = 2.0
CREATION_DATE  = 
ORIGINATOR     = 

OBJECT_NAME    = ALOS-2
OBJECT_ID      = 2014-029A
CENTER_NAME    = EARTH
REF_FRAME      = TEME
TIME_SYSTEM    = UTC
MEAN_ELEMENT_THEORY = SGP/SGP4

EPOCH          = 2026-01-27T11:06:30.475008
MEAN_MOTION    = 14.79473850
ECCENTRICITY   = .00014672
INCLINATION    = 97.9188
RA_OF_ASC_NODE = 126.6510
ARG_OF_PERICENTER = 100.4748
MEAN_ANOMALY   = 259.6629

EPHEMERIS_TYPE = 0
CLASSIFICATION_TYPE = U
NORAD_CAT_ID   = 39766
ELEMENT_SET_NO = 999
REV_AT_EPOCH   = 63077
BSTAR          = .78528944E-4
MEAN_MOTION_DOT = .535E-5
MEAN_MOTION_DDOT = 0

CCSDS_OMM_VERS = 2.0
CREATION_DATE  = 
ORIGINATOR     = 

OBJECT_NAME    = YAOGAN-29
OBJECT_ID      = 2015-069A
CENTER_NAME    = EARTH
REF_FRAME      = TEME
TIME_SYSTEM    = UTC
MEAN_ELEMENT_THEORY = SGP/SGP4

EPOCH          = 2026-01-27T20:07:01.872768
MEAN_MOTION    = 14.82946568
ECCENTRICITY   = .0002821
INCLINATION    = 98.0194
RA_OF_ASC_NODE = 56.1513
ARG_OF_PERICENTER = 104.8851
MEAN_ANOMALY   = 255.2674

EPHEMERIS_TYPE = 0
CLASSIFICATION_TYPE = U
NORAD_CAT_ID   = 41038
ELEMENT_SET_NO = 999
REV_AT_EPOCH   = 54982
BSTAR          = .15009E-3
MEAN_MOTION_DOT = .1164E-4
MEAN_MOTION_DDOT = 0

CCSDS_OMM_VERS = 2.0
CREATION_DATE  = 
ORIGINATOR     = 

OBJECT_NAME    = ASTRO-H (HITOMI)
OBJECT_ID      = 2016-012A
CENTER_NAME    = EARTH
REF_FRAME      = TEME
TIME_SYSTEM    = UTC
MEAN_ELEMENT_THEORY = SGP/SGP4

EPOCH          = 2026-01-27T17:05:47.903136
MEAN_MOTION    = 15.09697869
ECCENTRICITY   = .0009906
INCLINATION    = 30.9991
RA_OF_ASC_NODE = 260.9247
ARG_OF_PERICENTER = 281.0927
MEAN_ANOMALY   = 78.8597

EPHEMERIS_TYPE = 0
CLASSIFICATION_TYPE = U
NORAD_CAT_ID   = 41337
ELEMENT_SET_NO = 999
REV_AT_EPOCH   = 54603
BSTAR          = .26518E-3
MEAN_MOTION_DOT = .4478E-4
MEAN_MOTION_DDOT = 0

CCSDS_OMM_VERS = 2.0
CREATION_DATE  = 
ORIGINATOR     = 

OBJECT_NAME    = HXMT (HUIYAN)
OBJECT_ID      = 2017-034A
CENTER_NAME    = EARTH
REF_FRAME      = TEME
TIME_SYSTEM    = UTC
MEAN_ELEMENT_THEORY = SGP/SGP4

EPOCH          = 2026-01-27T19:52:51.834144
MEAN_MOTION    = 15.16920109
ECCENTRICITY   = .0032575
INCLINATION    = 43.0130
RA_OF_ASC_NODE = 243.7523
ARG_OF_PERICENTER = 334.0151
MEAN_ANOMALY   = 25.9061

EPHEMERIS_TYPE = 0
CLASSIFICATION_TYPE = U
NORAD_CAT_ID   = 42758
ELEMENT_SET_NO = 999
REV_AT_EPOCH   = 47633
BSTAR          = .37373E-3
MEAN_MOTION_DOT = .7369E-4
MEAN_MOTION_DDOT = 0

CCSDS_OMM_VERS = 2.0
CREATION_DATE  = 
ORIGINATOR     = 

OBJECT_NAME    = CZ-2C R/B
OBJECT_ID      = 2018-054D
CENTER_NAME    = EARTH
REF_FRAME      = TEME
TIME_SYSTEM    = UTC
MEAN_ELEMENT_THEORY = SGP/SGP4

EPOCH          = 2026-01-27T15:51:09.866304
MEAN_MOTION    = 15.88764871
ECCENTRICITY   = .0014314
INCLINATION    = 35.1320
RA_OF_ASC_NODE = 226.6256
ARG_OF_PERICENTER = 272.4267
MEAN_ANOMALY   = 87.4832

EPHEMERIS_TYPE = 0
CLASSIFICATION_TYPE = U
NORAD_CAT_ID   = 43521
ELEMENT_SET_NO = 999
REV_AT_EPOCH   = 42232
BSTAR          = .84022E-3
MEAN_MOTION_DOT = .249151E-2
MEAN_MOTION_DDOT = .22969E-4

CCSDS_OMM_VERS = 2.0
CREATION_DATE  = 
ORIGINATOR     = 

OBJECT_NAME    = SAOCOM 1A
OBJECT_ID      = 2018-076A
CENTER_NAME    = EARTH
REF_FRAME      = TEME
TIME_SYSTEM    = UTC
MEAN_ELEMENT_THEORY = SGP/SGP4

EPOCH          = 2026-01-27T20:22:39.658368
MEAN_MOTION    = 14.82169765
ECCENTRICITY   = .0001502
INCLINATION    = 97.8867
RA_OF_ASC_NODE = 216.6023
ARG_OF_PERICENTER = 81.6738
MEAN_ANOMALY   = 278.4645

EPHEMERIS_TYPE = 0
CLASSIFICATION_TYPE = U
NORAD_CAT_ID   = 43641
ELEMENT_SET_NO = 999
REV_AT_EPOCH   = 39531
BSTAR          = .61181E-4
MEAN_MOTION_DOT = .435E-5
MEAN_MOTION_DDOT = 0

CCSDS_OMM_VERS = 2.0
CREATION_DATE  = 
ORIGINATOR     = 

OBJECT_NAME    = H-2A R/B
OBJECT_ID      = 2018-084L
CENTER_NAME    = EARTH
REF_FRAME      = TEME
TIME_SYSTEM    = UTC
MEAN_ELEMENT_THEORY = SGP/SGP4

EPOCH          = 2026-01-27T13:11:05.047008
MEAN_MOTION    = 15.39469595
ECCENTRICITY   = .0026036
INCLINATION    = 98.8766
RA_OF_ASC_NODE = 236.2004
ARG_OF_PERICENTER = 164.5302
MEAN_ANOMALY   = 195.6741

EPHEMERIS_TYPE = 0
CLASSIFICATION_TYPE = U
NORAD_CAT_ID   = 43682
ELEMENT_SET_NO = 999
REV_AT_EPOCH   = 39944
BSTAR          = .714E-3
MEAN_MOTION_DOT = .28291E-3
MEAN_MOTION_DDOT = 0

CCSDS_OMM_VERS = 2.0
CREATION_DATE  = 
ORIGINATOR     = 

OBJECT_NAME    = SAOCOM 1B
OBJECT_ID      = 2020-059A
CENTER_NAME    = EARTH
REF_FRAME      = TEME
TIME_SYSTEM    = UTC
MEAN_ELEMENT_THEORY = SGP/SGP4

EPOCH          = 2026-01-27T19:30:28.352160
MEAN_MOTION    = 14.82148621
ECCENTRICITY   = .0001382
INCLINATION    = 97.8864
RA_OF_ASC_NODE = 215.6650
ARG_OF_PERICENTER = 86.0424
MEAN_ANOMALY   = 274.0947

EPHEMERIS_TYPE = 0
CLASSIFICATION_TYPE = U
NORAD_CAT_ID   = 46265
ELEMENT_SET_NO = 999
REV_AT_EPOCH   = 29269
BSTAR          = .16636E-3
MEAN_MOTION_DOT = .1272E-4
MEAN_MOTION_DDOT = 0

CCSDS_OMM_VERS = 2.0
CREATION_DATE  = 
ORIGINATOR     = 

OBJECT_NAME    = CSS (TIANHE)
OBJECT_ID      = 2021-035A
CENTER_NAME    = EARTH
REF_FRAME      = TEME
TIME_SYSTEM    = UTC
MEAN_ELEMENT_THEORY = SGP/SGP4

EPOCH          = 2026-01-27T13:09:48.722976
MEAN_MOTION    = 15.61179270
ECCENTRICITY   = .0009613
INCLINATION    = 41.4670
RA_OF_ASC_NODE = 98.2014
ARG_OF_PERICENTER = 15.4420
MEAN_ANOMALY   = 344.6711

EPHEMERIS_TYPE = 0
CLASSIFICATION_TYPE = U
NORAD_CAT_ID   = 48274
ELEMENT_SET_NO = 999
REV_AT_EPOCH   = 27118
BSTAR          = .31457E-3
MEAN_MOTION_DOT = .27185E-3
MEAN_MOTION_DDOT = 0

CCSDS_OMM_VERS = 2.0
CREATION_DATE  = 
ORIGINATOR     = 

OBJECT_NAME    = COSMOS 2550
OBJECT_ID      = 2021-056A
CENTER_NAME    = EARTH
REF_FRAME      = TEME
TIME_SYSTEM    = UTC
MEAN_ELEMENT_THEORY = SGP/SGP4

EPOCH          = 2026-01-26T03:10:39.828288
MEAN_MOTION    = 15.33840202
ECCENTRICITY   = .00083094
INCLINATION    = 67.1441
RA_OF_ASC_NODE = 169.6578
ARG_OF_PERICENTER = 269.8947
MEAN_ANOMALY   = 90.1255

EPHEMERIS_TYPE = 0
CLASSIFICATION_TYPE = U
NORAD_CAT_ID   = 48865
ELEMENT_SET_NO = 999
REV_AT_EPOCH   = 25693
BSTAR          = .322698E-6
MEAN_MOTION_DOT = -.181E-5
MEAN_MOTION_DDOT = 0

CCSDS_OMM_VERS = 2.0
CREATION_DATE  = 
ORIGINATOR     = 

OBJECT_NAME    = CZ-2C R/B
OBJECT_ID      = 2022-058K
CENTER_NAME    = EARTH
REF_FRAME      = TEME
TIME_SYSTEM    = UTC
MEAN_ELEMENT_THEORY = SGP/SGP4

EPOCH          = 2026-01-27T18:38:32.963424
MEAN_MOTION    = 15.51382435
ECCENTRICITY   = .0042571
INCLINATION    = 50.1881
RA_OF_ASC_NODE = 168.2861
ARG_OF_PERICENTER = 27.8674
MEAN_ANOMALY   = 332.4563

EPHEMERIS_TYPE = 0
CLASSIFICATION_TYPE = U
NORAD_CAT_ID   = 52794
ELEMENT_SET_NO = 999
REV_AT_EPOCH   = 20377
BSTAR          = .57743E-3
MEAN_MOTION_DOT = .35669E-3
MEAN_MOTION_DDOT = 0

