SL-4 R/B                
1 39679U 14021B   26027.77136727  .00015480  00000+0  35494-3 0  9994
2 39679  51.6053 176.6907 0099050 313.7585  45.5231 15.37895030649973
ALOS-2                  
1 39766U 14029A   26027.46285272  .00000535  00000+0  78529-4 0  9997
2 39766  97.9188 126.6510 0001467 100.4748 259.6629 14.79473850630778
YAOGAN-29               
1 41038U 15069A   26027.83821612  .00001164  00000+0  15009-3 0  9994
2 41038  98.0194  56.1513 0002821 104.8851 255.2674 14.82946568549822
ASTRO-H (HITOMI)        
1 41337U 16012A   26027.71235999  .00004478  00000+0  26518-3 0  9997
2 41337  30.9991 260.9247 0009906 281.0927  78.8597 15.09697869546036
HXMT (HUIYAN)           
1 42758U 17034A   26027.82837771  .00007369  00000+0  37373-3 0  9991
2 42758  43.0130 243.7523 0032575 334.0151  25.9061 15.16920109476334
CZ-2C R/B               
1 43521U 18054D   26027.66053086  .00249151  22969-4  84022-3 0  9997
2 43521  35.1320 226.6256 0014314 272.4267  87.4832 15.88764871422323
SAOCOM 1A               
1 43641U 18076A   26027.84907012  .00000435  00000+0  61181-4 0  9990
2 43641  97.8867 216.6023 0001502  81.6738 278.4645 14.82169765395312
H-2A R/B                
1 43682U 18084L   26027.54936397  .00028291  00000+0  71400-3 0  9993
2 43682  98.8766 236.2004 0026036 164.5302 195.6741 15.39469595399442
SAOCOM 1B               
1 46265U 20059A   26027.81282815  .00001272  00000+0  16636-3 0  9997
2 46265  97.8864 215.6650 0001382  86.0424 274.0947 14.82148621292698
CSS (TIANHE)            
1 48274U 21035A   26027.54848059  .00027185  00000+0  31457-3 0  9991
2 48274  41.4670  98.2014 0009613  15.4420 344.6711 15.61179270271182
COSMOS 2550             
1 48865U 21056A   26026.13240542 -.00000181  00000+0  32270-6 0  9992
2 48865  67.1441 169.6578 0008309 269.8947  90.1255 15.33840202256938
CZ-2C R/B               
1 52794U 22058K   26027.77677041  .00035669  00000+0  57743-3 0  9997
2 52794  50.1881 168.2861 0042571  27.8674 332.4563 15.51382435203779
